IRIDIUM 155             
1 43573U 18061E   19033.58118640  .00000073  00000-0  18890-4 0  9997
2 43573  86.3962 101.5886 0002787 109.3954 250.7543 14.34217337 27574
IRIDIUM 154             
1 43574U 18061F   19033.56215800  .00000070  00000-0  17794-4 0  9991
2 43574  86.3966 101.6031 0001879  92.3855 267.7556 14.34217281 27619
IRIDIUM 163             
1 43575U 18061G   19033.54312997  .00000062  00000-0  15095-4 0  9998
2 43575  86.3964 101.6078 0002634  78.5764 281.5728 14.34218100 27586
IRIDIUM 156             
1 43576U 18061H   19033.58753737  .00000061  00000-0  14864-4 0  9996
2 43576  86.3963 101.5933 0002676  93.4963 266.6539 14.34218748 27579
IRIDIUM 164             
1 43577U 18061J   19033.56850394  .00000072  00000-0  18571-4 0  9993
2 43577  86.3965 101.6009 0002104  89.8720 270.2717 14.34218411 27625
IRIDIUM 159             
1 43578U 18061K   19033.60655619  .00000067  00000-0  16728-4 0  9998
2 43578  86.3963 101.5782 0002064  93.2054 266.9378 14.34217084 27591
IRIDIUM 180             
1 43922U 19002A   19029.08734767  .00000043  00000-0  54017-5 0  9994
2 43922  86.4955  40.2629 0001166  68.1026 292.0304 14.52518297  2588
IRIDIUM 176             
1 43923U 19002B   19033.50182320  .00000035  00000-0  16246-5 0  9992
2 43923  86.6088  38.4291 0002630  90.3993 269.7526 14.72269731  3226
IRIDIUM 168             
1 43924U 19002C   19033.59970160  .00000014  00000-0 -21272-5 0  9992
2 43924  86.3951  38.3749 0001783  78.0314 282.1082 14.34221660  3186
IRIDIUM 173             
1 43925U 19002D   19033.51725265  .00000062  00000-0  15068-4 0  9996
2 43925  86.3950  38.4072 0002028  85.3864 274.7564 14.34218956  3164
IRIDIUM 169             
1 43926U 19002E   19033.47854833  .00000086  00000-0  87888-5 0  9992
2 43926  86.8067  38.4676 0015296 136.1664 224.0772 14.75630818  3229
IRIDIUM 172             
1 43927U 19002F   19027.78704507 -.00040965  00000-0 -12855-1 0  9992
2 43927  86.4285  40.8073 0003104  25.6947 311.2887 14.40968899  2340
IRIDIUM 175             
1 43928U 19002G   19033.56368058  .00000072  00000-0  75125-5 0  9999
2 43928  86.6069  38.3938 0002090 121.3397 238.8025 14.72253221  3228
IRIDIUM 171             
1 43929U 19002H   19033.56164858  .00000031  00000-0  41566-5 0  9999
2 43929  86.3960  38.3953 0001898  84.9718 275.1695 14.34216912  3163
IRIDIUM 170             
1 43930U 19002J   19033.54464831  .00000117  00000-0  10823-4 0  9999
2 43930  86.6768  38.4125 0014931 134.4638 225.7810 14.83455665  3232
IRIDIUM 167             
1 43931U 19002K   19033.55530075  .00000003  00000-0 -58650-5 0  9991
2 43931  86.3949  38.3899 0001618  48.1268 312.0066 14.34220020  3162
